#aV2007 11  9  0  0   .00000000      96 DD+AD WGS84 FIT  NGA
## 1452 432000.00000000   900.00000000 54413  .0000000000000
+   31     1  2  3  4  5  6  7  8  9 10 11 12 13 14 15 16 17
+         18 19 20 21 22 23 24 25 26 27 28 30 31 32  0  0  0
+          0  0  0  0  0  0  0  0  0  0  0  0  0  0  0  0  0
+          0  0  0  0  0  0  0  0  0  0  0  0  0  0  0  0  0
+          0  0  0  0  0  0  0  0  0  0  0  0  0  0  0  0  0
++         0  0  0  0  0  0  0  0  0  0  0  0  0  0  0  0  0
++         0  0  0  0  0  0  0  0  0  0  0  0  0  0  0  0  0
++         0  0  0  0  0  0  0  0  0  0  0  0  0  0  0  0  0
++         0  0  0  0  0  0  0  0  0  0  0  0  0  0  0  0  0
++         0  0  0  0  0  0  0  0  0  0  0  0  0  0  0  0  0
%c cc cc ccc ccc cccc cccc cccc cccc ccccc ccccc ccccc ccccc
%c cc cc ccc ccc cccc cccc cccc cccc ccccc ccccc ccccc ccccc
%f  0.0000000  0.000000000  0.00000000000  0.000000000000000
%f  0.0000000  0.000000000  0.00000000000  0.000000000000000
%i    0    0    0    0      0      0      0      0         0
%i    0    0    0    0      0      0      0      0         0
/*      NGA, ST. LOUIS,MO.                                  
/*   EPHEMERIS COMPUTED FROM  3 DAYS OF DATA                
/* CCCCCCCCCCCCCCCCCCCCCCCCCCCCCCCCCCCCCCCCCCCCCCCCCCCCCCCCC
/* CCCCCCCCCCCCCCCCCCCCCCCCCCCCCCCCCCCCCCCCCCCCCCCCCCCCCCCCC
*  2007 11  9 11  0   .00000000                                                 
P  1  13194.524274 -17999.588559  14553.979545    165.461057                    
V  1  16557.284783  -7397.667346 -24601.900669       .022995                    
P  2   2643.827884  17515.662329  19691.383493    149.825376                    
V  2 -22962.544493 -10875.332811  12326.739713       .027683                    
P  3   1880.035196 -19003.577039 -18560.993200    141.692638                    
V  3  19794.350390 -12519.044714  15363.459177       .054885                    
P  4 -10966.753694  11477.498363  21251.092740    -22.621437                    
V  4 -23586.844154 -13525.205787  -4487.330076      -.042722                    
P  5  15058.971367  10854.442076  18785.883238    528.030697                    
V  5   1208.440729  24448.771101 -14747.879722       .247499                    
P  6  22982.325855  -3818.532510  12959.650765    221.139698                    
V  6 -11897.284422  11396.531451  24775.677186      -.083583                    
P  7  23400.462311  -6419.416584  11176.573883    -28.173955                    
V  7  -9497.214530  10366.603547  26604.931824       .062957                    
P  8 -17987.014852   4237.581339 -19354.519814   -129.241684                    
V  8 -20228.276742 -13211.954826  15536.337756      -.012310                    
P  9  20881.744814  15423.475991  -6657.459388     95.895804                    
V  9  -7797.479031  -1392.436928 -30329.341099       .016722                    
P 10   1219.391991  26307.248741  -1691.367271   -136.887319                    
V 10  -2905.928592   2030.328828  31996.596878      -.127750                    
P 11 -23426.708908 -11920.864177  -4971.319107     25.724171                    
V 11   7270.811793  -2333.668526 -29113.365101       .003294                    
P 12  12124.460742  16811.834786  16735.964751   -347.705074                    
V 12  -1149.518778  21090.472307 -20395.725093      -.012800                    
P 13 -23358.246539   4307.006866  11759.105948    219.883511                    
V 13  12408.127662  -8653.685773  27596.294307       .026825                    
P 14  21065.452040 -15518.907704   4343.322037   -321.204595                    
V 14   5642.543996  -1016.712402 -31806.830073       .025509                    
P 15   8287.714711  12829.295318 -21701.537401    -86.660934                    
V 15 -23386.882220  14718.440585   -259.608312       .089176                    
P 16   2343.773073 -26103.652672   3792.046265    123.955255                    
V 16   2867.280138   4717.715419  31444.958177       .018453                    
P 17 -21477.318859  15234.881713   2839.828929     49.463187                    
V 17  -4608.471848   -677.137065 -31550.051369      -.009027                    
P 18  15299.665645  -2490.718902 -21374.056966   -226.555511                    
V 18    163.267250  27610.093040  -3420.817355       .022151                    
P 19  -7773.373838 -13130.573911 -21654.369654      6.011653                    
V 19  24527.631353 -12901.300825   -828.443594       .020502                    
P 20 -13549.874163 -13783.507944  18132.534106    126.517325                    
V 20    749.566301 -23301.881734 -17016.145954      -.006500                    
P 21  23724.408343   3745.793298 -11809.203741     76.742457                    
V 21  11748.446085   9758.777178  25777.177693      -.004428                    
P 22  11899.843472 -17263.241958 -16116.805717    202.615445                    
V 22   1811.762963  20857.911425 -20833.204543       .008970                    
P 23 -17269.597816  -5098.759197  19534.259549    307.690949                    
V 23  20672.018886 -13824.759511  14389.662207       .034256                    
P 24  23141.008131  12530.646648  -1916.318661     44.816476                    
V 24    593.373403   4180.163715  31692.360445       .029304                    
P 25 -24983.950499  -6142.274068  -5901.774776    476.394219                    
V 25  -6239.793654  -5758.830507  30683.753000       .057600                    
P 26   5099.075734  13917.856320 -22455.585430     89.483816                    
V 26 -24070.912648  13034.965569   3204.996505       .122076                    
P 27 -23488.813334  -1961.830062 -11781.178871    146.601474                    
V 27 -13473.963452  -8752.697767  26641.149473       .024763                    
P 28 -12604.101377  14137.728015 -18125.036112    -10.048069                    
V 28  -1846.123368 -23852.203488 -17337.090471      -.006923                    
P 30  15379.766444   4117.643275  20941.131964     51.829696                    
V 30   1173.758801  27381.527065  -6050.386660       .013293                    
P 31   7671.840951 -13146.233707  21968.496959      2.990708                    
V 31  24135.080314  12965.037451   -602.279542      -.014258                    
P 32   6514.147940 -24560.632148  -7510.447970    131.903171                    
V 32   1733.182012  10236.936348 -29957.934929       .137115                    
EOF
